STARLINK-31660          
1 59642U 24082M   26068.45093396 -.00000269  00000+0 -21930-6 0  9992
2 59642  43.0042 100.7890 0002132 327.0181  33.0537 15.27573152105438
TRANSPORTER-12 OBJECT BT
1 62674U 25009BT  26068.71416991  .00013824  00000+0  51029-3 0  9998
2 62674  97.4094 151.5992 0003682 313.5044  46.5889 15.27872239121360
